ONEWEB-0033             
1 45142U 20008M   24312.93268889  .00000625  00000+0  17546-2 0  9998
2 45142  87.8899 153.0337 0001410  74.1864 285.9418 13.10376066231438
ONEWEB-0035             
1 45143U 20008N   24312.58242005 -.00000449  00000+0 -13231-2 0  9995
2 45143  87.8902 153.0925 0001514  79.6860 280.4438 13.10369636232009
ONEWEB-0036             
1 45144U 20008P   24312.57246825 -.00000002  00000+0 -40804-4 0  9992
2 45144  87.8896 153.0456 0001453  93.3936 266.7358 13.10369059231545
ONEWEB-0038             
1 45145U 20008Q   24312.28211750  .00000595  00000+0  16415-2 0  9994
2 45145  87.8888 137.9850 0002275  87.5416 272.5972 13.11417571233405
ONEWEB-0039             
1 45146U 20008R   24312.93599675  .00000720  00000+0  20274-2 0  9990
2 45146  87.8901 152.9931 0001958  93.8042 266.3310 13.10379137231387
ONEWEB-0040             
1 45147U 20008S   24312.54757695  .00000574  00000+0  16087-2 0  9990
2 45147  87.8910 153.0809 0001538  82.3672 277.7630 13.10375116231823
ONEWEB-0043             
1 45149U 20008U   24312.32016295  .00000691  00000+0  19423-2 0  9999
2 45149  87.8902 153.1249 0001654  99.5719 260.5595 13.10375039231325
ONEWEB-0044             
1 45150U 20008V   24312.27201355 -.00000267  00000+0 -80070-3 0  9996
2 45150  87.8899 153.1284 0001626  93.0819 267.0494 13.10369779231616
